start=new Date('2022-07-31T00:00:00.000Z').valueOf();
sats=[{"REF_FRAME":"TEME","RCS_SIZE":"LARGE","SITE":"AFETR","INCLINATION":"53.0551","MEAN_ANOMALY":"294.0330","OBJECT_ID":"2020-057D","BSTAR":"0.00007016800000","EPOCH":"2022-07-30T18:03:10.571616","NORAD_CAT_ID":"46120","SEMIMAJOR_AXIS":"6925.375","DECAY_DATE":null,"ECCENTRICITY":"0.00017590","TLE_LINE1":"1 46120U 20057D   22211.75220569  .00000763  00000-0  70168-4 0  9993","TLE_LINE2":"2 46120  53.0551 113.0793 0001759  66.0843 294.0330 15.06391330108705","OBJECT_TYPE":"PAYLOAD","OBJECT_NAME":"STARLINK-1601","EPHEMERIS_TYPE":"0","CENTER_NAME":"EARTH","MEAN_MOTION_DDOT":"0.0000000000000","COUNTRY_CODE":"US","ELEMENT_SET_NO":"999","LAUNCH_DATE":"2020-08-18","CLASSIFICATION_TYPE":"U","APOAPSIS":"548.458","RA_OF_ASC_NODE":"113.0793","MEAN_MOTION_DOT":"0.00000763","PERIOD":"95.593","MEAN_ELEMENT_THEORY":"SGP4","FILE":"3525638","GP_ID":"209225539","REV_AT_EPOCH":"10870","MEAN_MOTION":"15.06391330","TIME_SYSTEM":"UTC","PERIAPSIS":"546.022","ARG_OF_PERICENTER":"66.0843"},{"MEAN_MOTION_DDOT":"0.0000000000000","COUNTRY_CODE":"US","CENTER_NAME":"EARTH","EPHEMERIS_TYPE":"0","OBJECT_NAME":"STARLINK-1602","OBJECT_TYPE":"PAYLOAD","TLE_LINE2":"2 46121  53.0556  92.9276 0001623  81.2124 278.9049 15.06404173108363","ARG_OF_PERICENTER":"81.2124","PERIAPSIS":"546.077","TIME_SYSTEM":"UTC","FILE":"3525443","GP_ID":"209200325","MEAN_MOTION":"15.06404173","REV_AT_EPOCH":"10836","MEAN_ELEMENT_THEORY":"SGP4","PERIOD":"95.592","MEAN_MOTION_DOT":"0.00000704","RA_OF_ASC_NODE":"92.9276","APOAPSIS":"548.325","LAUNCH_DATE":"2020-08-18","CLASSIFICATION_TYPE":"U","ELEMENT_SET_NO":"999","MEAN_ANOMALY":"278.9049","INCLINATION":"53.0556","RCS_SIZE":"LARGE","SITE":"AFETR","REF_FRAME":"TEME","TLE_LINE1":"1 46121U 20057E   22211.78721760  .00000704  00000-0  66127-4 0  9991","DECAY_DATE":null,"ECCENTRICITY":"0.00016230","SEMIMAJOR_AXIS":"6925.336","NORAD_CAT_ID":"46121","BSTAR":"0.00006612700000","EPOCH":"2022-07-30T18:53:35.600640","OBJECT_ID":"2020-057E"},{"REF_FRAME":"TEME","MEAN_ANOMALY":"277.9750","INCLINATION":"53.0549","SITE":"AFETR","RCS_SIZE":"LARGE","TLE_LINE1":"1 46122U 20057F   22211.73009019  .00000170  00000-0  30301-4 0  9995","ECCENTRICITY":"0.00014700","DECAY_DATE":null,"SEMIMAJOR_AXIS":"6925.384","NORAD_CAT_ID":"46122","EPOCH":"2022-07-30T17:31:19.792416","BSTAR":"0.00003030100000","OBJECT_ID":"2020-057F","EPHEMERIS_TYPE":"0","OBJECT_NAME":"STARLINK-1604","OBJECT_TYPE":"PAYLOAD","TLE_LINE2":"2 46122  53.0549  73.1572 0001470  82.1405 277.9750 15.06388533109234","MEAN_MOTION_DDOT":"0.0000000000000","COUNTRY_CODE":"US","CENTER_NAME":"EARTH","RA_OF_ASC_NODE":"73.1572","APOAPSIS":"548.267","CLASSIFICATION_TYPE":"U","LAUNCH_DATE":"2020-08-18","ELEMENT_SET_NO":"999","ARG_OF_PERICENTER":"82.1405","PERIAPSIS":"546.231","TIME_SYSTEM":"UTC","GP_ID":"209224539","MEAN_MOTION":"15.06388533","FILE":"3525638","REV_AT_EPOCH":"10923","MEAN_MOTION_DOT":"0.00000170","PERIOD":"95.593","MEAN_ELEMENT_THEORY":"SGP4"},{"OBJECT_ID":"2020-057G","BSTAR":"0.00006330000000","EPOCH":"2022-07-30T21:56:42.861408","NORAD_CAT_ID":"46123","SEMIMAJOR_AXIS":"6925.364","DECAY_DATE":null,"ECCENTRICITY":"0.00016200","TLE_LINE1":"1 46123U 20057G   22211.91438497  .00000661  00000-0  63300-4 0  9992","SITE":"AFETR","RCS_SIZE":"LARGE","INCLINATION":"53.0558","MEAN_ANOMALY":"277.0855","REF_FRAME":"TEME","PERIOD":"95.592","MEAN_ELEMENT_THEORY":"SGP4","MEAN_MOTION_DOT":"0.00000661","REV_AT_EPOCH":"10928","GP_ID":"209224790","FILE":"3525638","MEAN_MOTION":"15.06395111","TIME_SYSTEM":"UTC","PERIAPSIS":"546.107","ARG_OF_PERICENTER":"83.0318","ELEMENT_SET_NO":"999","CLASSIFICATION_TYPE":"U","LAUNCH_DATE":"2020-08-18","APOAPSIS":"548.350","RA_OF_ASC_NODE":"72.3484","CENTER_NAME":"EARTH","COUNTRY_CODE":"US","MEAN_MOTION_DDOT":"0.0000000000000","TLE_LINE2":"2 46123  53.0558  72.3484 0001620  83.0318 277.0855 15.06395111109280","OBJECT_TYPE":"PAYLOAD","OBJECT_NAME":"STARLINK-1605","EPHEMERIS_TYPE":"0"},{"TLE_LINE2":"2 46124  53.0539  73.1967 0001384  80.7518 279.3628 15.06391119107980","OBJECT_TYPE":"PAYLOAD","OBJECT_NAME":"STARLINK-1614","EPHEMERIS_TYPE":"0","CENTER_NAME":"EARTH","MEAN_MOTION_DDOT":"0.0000000000000","COUNTRY_CODE":"US","ELEMENT_SET_NO":"999","CLASSIFICATION_TYPE":"U","LAUNCH_DATE":"2020-08-18","APOAPSIS":"548.199","RA_OF_ASC_NODE":"73.1967","PERIOD":"95.593","MEAN_MOTION_DOT":"0.00000163","MEAN_ELEMENT_THEORY":"SGP4","MEAN_MOTION":"15.06391119","GP_ID":"209225041","FILE":"3525638","REV_AT_EPOCH":"10798","TIME_SYSTEM":"UTC","PERIAPSIS":"546.282","ARG_OF_PERICENTER":"80.7518","REF_FRAME":"TEME","SITE":"AFETR","RCS_SIZE":"LARGE","INCLINATION":"53.0539","MEAN_ANOMALY":"279.3628","OBJECT_ID":"2020-057H","EPOCH":"2022-07-30T17:20:42.665856","BSTAR":"0.00002985100000","NORAD_CAT_ID":"46124","SEMIMAJOR_AXIS":"6925.376","DECAY_DATE":null,"ECCENTRICITY":"0.00013840","TLE_LINE1":"1 46124U 20057H   22211.72271604  .00000163  00000-0  29851-4 0  9997"},{"TIME_SYSTEM":"UTC","ARG_OF_PERICENTER":"82.8475","PERIAPSIS":"546.188","MEAN_MOTION_DOT":"-0.00000527","PERIOD":"95.593","MEAN_ELEMENT_THEORY":"SGP4","GP_ID":"209223789","REV_AT_EPOCH":"10867","FILE":"3525638","MEAN_MOTION":"15.06393561","RA_OF_ASC_NODE":"113.2950","APOAPSIS":"548.278","ELEMENT_SET_NO":"999","LAUNCH_DATE":"2020-08-18","CLASSIFICATION_TYPE":"U","MEAN_MOTION_DDOT":"0.0000000000000","COUNTRY_CODE":"US","CENTER_NAME":"EARTH","OBJECT_TYPE":"PAYLOAD","EPHEMERIS_TYPE":"0","OBJECT_NAME":"STARLINK-1618","TLE_LINE2":"2 46125  53.0561 113.2950 0001509  82.8475 277.2686 15.06393561108679","DECAY_DATE":null,"ECCENTRICITY":"0.00015090","TLE_LINE1":"1 46125U 20057J   22211.70428898 -.00000527  00000-0 -16510-4 0  9999","EPOCH":"2022-07-30T16:54:10.567872","BSTAR":"-0.00001651000000","OBJECT_ID":"2020-057J","SEMIMAJOR_AXIS":"6925.368","NORAD_CAT_ID":"46125","INCLINATION":"53.0561","MEAN_ANOMALY":"277.2686","SITE":"AFETR","RCS_SIZE":"LARGE","REF_FRAME":"TEME"},{"APOAPSIS":"548.284","RA_OF_ASC_NODE":"115.7918","LAUNCH_DATE":"2020-08-18","CLASSIFICATION_TYPE":"U","ELEMENT_SET_NO":"999","PERIAPSIS":"546.142","ARG_OF_PERICENTER":"85.2910","TIME_SYSTEM":"UTC","REV_AT_EPOCH":"10733","GP_ID":"209169085","FILE":"3525407","MEAN_MOTION":"15.06400166","MEAN_MOTION_DOT":"0.00000679","PERIOD":"95.592","MEAN_ELEMENT_THEORY":"SGP4","OBJECT_NAME":"STARLINK-1619","EPHEMERIS_TYPE":"0","OBJECT_TYPE":"PAYLOAD","TLE_LINE2":"2 46126  53.0554 115.7918 0001547  85.2910 274.8256 15.06400166107334","MEAN_MOTION_DDOT":"0.0000000000000","COUNTRY_CODE":"US","CENTER_NAME":"EARTH","TLE_LINE1":"1 46126U 20057K   22211.14770342  .00000679  00000-0  64457-4 0  9991","DECAY_DATE":null,"ECCENTRICITY":"0.00015470","NORAD_CAT_ID":"46126","SEMIMAJOR_AXIS":"6925.348","OBJECT_ID":"2020-057K","BSTAR":"0.00006445700000","EPOCH":"2022-07-30T03:32:41.575488","REF_FRAME":"TEME","MEAN_ANOMALY":"274.8256","INCLINATION":"53.0554","RCS_SIZE":"LARGE","SITE":"AFETR"},{"CENTER_NAME":"EARTH","MEAN_MOTION_DDOT":"0.0000000000000","COUNTRY_CODE":"US","TLE_LINE2":"2 46127  53.0542  92.2470 0001687  78.4145 281.7033 15.06392801107722","OBJECT_TYPE":"PAYLOAD","EPHEMERIS_TYPE":"0","OBJECT_NAME":"STARLINK-1621","PERIOD":"95.593","MEAN_MOTION_DOT":"-0.00000792","MEAN_ELEMENT_THEORY":"SGP4","FILE":"3525638","GP_ID":"209225290","MEAN_MOTION":"15.06392801","REV_AT_EPOCH":"10772","TIME_SYSTEM":"UTC","ARG_OF_PERICENTER":"78.4145","PERIAPSIS":"546.067","ELEMENT_SET_NO":"999","LAUNCH_DATE":"2020-08-18","CLASSIFICATION_TYPE":"U","RA_OF_ASC_NODE":"92.2470","APOAPSIS":"548.404","RCS_SIZE":"LARGE","SITE":"AFETR","INCLINATION":"53.0542","MEAN_ANOMALY":"281.7033","REF_FRAME":"TEME","BSTAR":"-0.00003428500000","EPOCH":"2022-07-30T22:25:54.419232","OBJECT_ID":"2020-057L","SEMIMAJOR_AXIS":"6925.371","NORAD_CAT_ID":"46127","DECAY_DATE":null,"ECCENTRICITY":"0.00016870","TLE_LINE1":"1 46127U 20057L   22211.93465763 -.00000792  00000-0 -34285-4 0  9991"},{"MEAN_MOTION_DDOT":"0.0000000000000","COUNTRY_CODE":"US","CENTER_NAME":"EARTH","EPHEMERIS_TYPE":"0","OBJECT_NAME":"STARLINK-1622","OBJECT_TYPE":"PAYLOAD","TLE_LINE2":"2 46128  53.0537  72.4161 0001478  95.8474 264.2683 15.06399420108003","ARG_OF_PERICENTER":"95.8474","PERIAPSIS":"546.192","TIME_SYSTEM":"UTC","FILE":"3525638","GP_ID":"209225540","MEAN_MOTION":"15.06399420","REV_AT_EPOCH":"10800","PERIOD":"95.592","MEAN_ELEMENT_THEORY":"SGP4","MEAN_MOTION_DOT":"0.00001088","RA_OF_ASC_NODE":"72.4161","APOAPSIS":"548.239","LAUNCH_DATE":"2020-08-18","CLASSIFICATION_TYPE":"U","ELEMENT_SET_NO":"999","MEAN_ANOMALY":"264.2683","INCLINATION":"53.0537","RCS_SIZE":"LARGE","SITE":"AFETR","REF_FRAME":"TEME","TLE_LINE1":"1 46128U 20057M   22211.89595170  .00001088  00000-0  91941-4 0  9992","DECAY_DATE":null,"ECCENTRICITY":"0.00014780","SEMIMAJOR_AXIS":"6925.350","NORAD_CAT_ID":"46128","BSTAR":"0.00009194100000","EPOCH":"2022-07-30T21:30:10.226880","OBJECT_ID":"2020-057M"},{"SITE":"AFETR","RCS_SIZE":"LARGE","INCLINATION":"53.0545","MEAN_ANOMALY":"264.3684","REF_FRAME":"TEME","BSTAR":"0.00005241300000","EPOCH":"2022-07-30T20:53:00.801888","OBJECT_ID":"2020-057N","SEMIMAJOR_AXIS":"6925.350","NORAD_CAT_ID":"46129","DECAY_DATE":null,"ECCENTRICITY":"0.00012540","TLE_LINE1":"1 46129U 20057N   22211.87014817  .00000499  00000-0  52413-4 0  9991","CENTER_NAME":"EARTH","MEAN_MOTION_DDOT":"0.0000000000000","COUNTRY_CODE":"US","TLE_LINE2":"2 46129  53.0545  72.5498 0001254  95.7448 264.3684 15.06399673108001","OBJECT_TYPE":"PAYLOAD","EPHEMERIS_TYPE":"0","OBJECT_NAME":"STARLINK-1623","MEAN_ELEMENT_THEORY":"SGP4","PERIOD":"95.592","MEAN_MOTION_DOT":"0.00000499","REV_AT_EPOCH":"10800","GP_ID":"209224290","FILE":"3525638","MEAN_MOTION":"15.06399673","TIME_SYSTEM":"UTC","ARG_OF_PERICENTER":"95.7448","PERIAPSIS":"546.346","ELEMENT_SET_NO":"999","CLASSIFICATION_TYPE":"U","LAUNCH_DATE":"2020-08-18","RA_OF_ASC_NODE":"72.5498","APOAPSIS":"548.083"}];
